{
  "type": "FeatureCollection",
  "features": [
    {
      "type": "Feature",
      "properties": {
        "norad_id": 33887,
        "name": "IRIDIUM 33 DEB",
        "group": "iridium-33-debris",
        "lat": -81.27582643489738,
        "lon": -27.330998645428224,
        "alt_km": 775.9792531085877,
        "timestamp": "2025-12-26T05:31:12.891508+00:00",
        "meta_object_name": "IRIDIUM 33 DEB",
        "meta_object_id": "1997-051BG",
        "meta_epoch": "2025-12-25T23:29:19.958208",
        "meta_mean_motion": 14.37232528,
        "meta_eccentricity": 0.00058897,
        "meta_inclination": 86.3044,
        "meta_ra_of_asc_node": 357.6865,
        "meta_arg_of_pericenter": 176.6915,
        "meta_mean_anomaly": 241.7187,
        "meta_ephemeris_type": 0,
        "meta_classification_type": "U",
        "meta_norad_cat_id": 33887,
        "meta_element_set_no": 999,
        "meta_rev_at_epoch": 88355,
        "meta_bstar": 0.00014636498,
        "meta_mean_motion_dot": 4.55e-06,
        "meta_mean_motion_ddot": 0,
        "tle_line1": "1 33887U 97051BG  25359.97870322  .00000455  00000+0  14636-3 0  9999",
        "tle_line2": "2 33887  86.3044 357.6865 0005889 176.6915 241.7187 14.37232528883557"
      },
      "geometry": {
        "type": "Point",
        "coordinates": [
          -27.330998645428224,
          -81.27582643489738
        ]
      }
    },
    {
      "type": "Feature",
      "properties": {
        "norad_id": 33953,
        "name": "IRIDIUM 33 DEB",
        "group": "iridium-33-debris",
        "lat": -66.00126068755868,
        "lon": 39.75531553604874,
        "alt_km": 722.7782234590431,
        "timestamp": "2025-12-26T05:31:12.891519+00:00",
        "meta_object_name": "IRIDIUM 33 DEB",
        "meta_object_id": "1997-051BN",
        "meta_epoch": "2025-12-25T15:33:55.183968",
        "meta_mean_motion": 14.55441742,
        "meta_eccentricity": 0.001753,
        "meta_inclination": 86.3832,
        "meta_ra_of_asc_node": 48.1755,
        "meta_arg_of_pericenter": 63.1805,
        "meta_mean_anomaly": 66.1443,
        "meta_ephemeris_type": 0,
        "meta_classification_type": "U",
        "meta_norad_cat_id": 33953,
        "meta_element_set_no": 999,
        "meta_rev_at_epoch": 88491,
        "meta_bstar": 0.0011189,
        "meta_mean_motion_dot": 4.893e-05,
        "meta_mean_motion_ddot": 0,
        "tle_line1": "1 33953U 97051BN  25359.64855537  .00004893  00000+0  11189-2 0  9997",
        "tle_line2": "2 33953  86.3832  48.1755 0017530  63.1805  66.1443 14.55441742884915"
      },
      "geometry": {
        "type": "Point",
        "coordinates": [
          39.75531553604874,
          -66.00126068755868
        ]
      }
    },
    {
      "type": "Feature",
      "properties": {
        "norad_id": 33960,
        "name": "IRIDIUM 33 DEB",
        "group": "iridium-33-debris",
        "lat": 60.01312219747293,
        "lon": 96.63158837581865,
        "alt_km": 604.4153048684129,
        "timestamp": "2025-12-26T05:31:12.891530+00:00",
        "meta_object_name": "IRIDIUM 33 DEB",
        "meta_object_id": "1997-051BV",
        "meta_epoch": "2025-12-25T19:31:33.400992",
        "meta_mean_motion": 14.85848128,
        "meta_eccentricity": 0.00070784,
        "meta_inclination": 86.2535,
        "meta_ra_of_asc_node": 283.3484,
        "meta_arg_of_pericenter": 39.5343,
        "meta_mean_anomaly": 14.0569,
        "meta_ephemeris_type": 0,
        "meta_classification_type": "U",
        "meta_norad_cat_id": 33960,
        "meta_element_set_no": 999,
        "meta_rev_at_epoch": 89061,
        "meta_bstar": 0.0032209235,
        "meta_mean_motion_dot": 0.00028154,
        "meta_mean_motion_ddot": 0,
        "tle_line1": "1 33960U 97051BV  25359.81358103  .00028154  00000+0  32209-2 0  9993",
        "tle_line2": "2 33960  86.2535 283.3484 0007078  39.5343  14.0569 14.85848128890611"
      },
      "geometry": {
        "type": "Point",
        "coordinates": [
          96.63158837581865,
          60.01312219747293
        ]
      }
    },
    {
      "type": "Feature",
      "properties": {
        "norad_id": 33966,
        "name": "IRIDIUM 33 DEB",
        "group": "iridium-33-debris",
        "lat": 39.48897576914571,
        "lon": -142.74413663159947,
        "alt_km": 717.6592613303364,
        "timestamp": "2025-12-26T05:31:12.891540+00:00",
        "meta_object_name": "IRIDIUM 33 DEB",
        "meta_object_id": "1997-051CB",
        "meta_epoch": "2025-12-25T12:53:56.995008",
        "meta_mean_motion": 14.49641936,
        "meta_eccentricity": 0.0008794,
        "meta_inclination": 86.391,
        "meta_ra_of_asc_node": 40.5342,
        "meta_arg_of_pericenter": 148.7203,
        "meta_mean_anomaly": 339.7416,
        "meta_ephemeris_type": 0,
        "meta_classification_type": "U",
        "meta_norad_cat_id": 33966,
        "meta_element_set_no": 999,
        "meta_rev_at_epoch": 88627,
        "meta_bstar": 0.00048825,
        "meta_mean_motion_dot": 1.896e-05,
        "meta_mean_motion_ddot": 0,
        "tle_line1": "1 33966U 97051CB  25359.53746522  .00001896  00000+0  48825-3 0  9990",
        "tle_line2": "2 33966  86.3910  40.5342 0008794 148.7203 339.7416 14.49641936886278"
      },
      "geometry": {
        "type": "Point",
        "coordinates": [
          -142.74413663159947,
          39.48897576914571
        ]
      }
    },
    {
      "type": "Feature",
      "properties": {
        "norad_id": 34071,
        "name": "IRIDIUM 33 DEB",
        "group": "iridium-33-debris",
        "lat": -20.787720710798265,
        "lon": -166.645931159542,
        "alt_km": 736.9464967293552,
        "timestamp": "2025-12-26T05:31:12.891551+00:00",
        "meta_object_name": "IRIDIUM 33 DEB",
        "meta_object_id": "1997-051CE",
        "meta_epoch": "2025-12-25T23:37:39.486720",
        "meta_mean_motion": 14.49522198,
        "meta_eccentricity": 0.00098179,
        "meta_inclination": 86.3452,
        "meta_ra_of_asc_node": 12.0704,
        "meta_arg_of_pericenter": 72.3637,
        "meta_mean_anomaly": 287.8639,
        "meta_ephemeris_type": 0,
        "meta_classification_type": "U",
        "meta_norad_cat_id": 34071,
        "meta_element_set_no": 999,
        "meta_rev_at_epoch": 88526,
        "meta_bstar": 0.00060388298,
        "meta_mean_motion_dot": 2.335e-05,
        "meta_mean_motion_ddot": 0,
        "tle_line1": "1 34071U 97051CE  25359.98448480  .00002335  00000+0  60388-3 0  9996",
        "tle_line2": "2 34071  86.3452  12.0704 0009817  72.3637 287.8639 14.49522198885269"
      },
      "geometry": {
        "type": "Point",
        "coordinates": [
          -166.645931159542,
          -20.787720710798265
        ]
      }
    },
    {
      "type": "Feature",
      "properties": {
        "norad_id": 34077,
        "name": "IRIDIUM 33 DEB",
        "group": "iridium-33-debris",
        "lat": 70.46030312495802,
        "lon": 55.82570444437213,
        "alt_km": 668.818793994612,
        "timestamp": "2025-12-26T05:31:12.891562+00:00",
        "meta_object_name": "IRIDIUM 33 DEB",
        "meta_object_id": "1997-051CL",
        "meta_epoch": "2025-12-25T15:09:22.159872",
        "meta_mean_motion": 14.64997982,
        "meta_eccentricity": 0.0008673,
        "meta_inclination": 86.3846,
        "meta_ra_of_asc_node": 45.8272,
        "meta_arg_of_pericenter": 357.0733,
        "meta_mean_anomaly": 159.1877,
        "meta_ephemeris_type": 0,
        "meta_classification_type": "U",
        "meta_norad_cat_id": 34077,
        "meta_element_set_no": 999,
        "meta_rev_at_epoch": 88521,
        "meta_bstar": 0.0015833,
        "meta_mean_motion_dot": 8.51e-05,
        "meta_mean_motion_ddot": 0,
        "tle_line1": "1 34077U 97051CL  25359.63150648  .00008510  00000+0  15833-2 0  9995",
        "tle_line2": "2 34077  86.3846  45.8272 0008673 357.0733 159.1877 14.64997982885219"
      },
      "geometry": {
        "type": "Point",
        "coordinates": [
          55.82570444437213,
          70.46030312495802
        ]
      }
    },
    {
      "type": "Feature",
      "properties": {
        "norad_id": 34079,
        "name": "IRIDIUM 33 DEB",
        "group": "iridium-33-debris",
        "lat": -73.06608909112748,
        "lon": -165.46712679239747,
        "alt_km": 623.2215472566168,
        "timestamp": "2025-12-26T05:31:12.891573+00:00",
        "meta_object_name": "IRIDIUM 33 DEB",
        "meta_object_id": "1997-051CN",
        "meta_epoch": "2025-12-25T23:47:28.010688",
        "meta_mean_motion": 14.83883238,
        "meta_eccentricity": 0.00039178,
        "meta_inclination": 86.3779,
        "meta_ra_of_asc_node": 2.6334,
        "meta_arg_of_pericenter": 317.0735,
        "meta_mean_anomaly": 102.0107,
        "meta_ephemeris_type": 0,
        "meta_classification_type": "U",
        "meta_norad_cat_id": 34079,
        "meta_element_set_no": 999,
        "meta_rev_at_epoch": 89174,
        "meta_bstar": 0.0018645122,
        "meta_mean_motion_dot": 0.00015518,
        "meta_mean_motion_ddot": 0,
        "tle_line1": "1 34079U 97051CN  25359.99129642  .00015518  00000+0  18645-2 0  9996",
        "tle_line2": "2 34079  86.3779   2.6334 0003917 317.0735 102.0107 14.83883238891747"
      },
      "geometry": {
        "type": "Point",
        "coordinates": [
          -165.46712679239747,
          -73.06608909112748
        ]
      }
    }
  ]
}